OBJECT_NAME,OBJECT_ID,EPOCH,MEAN_MOTION,ECCENTRICITY,INCLINATION,RA_OF_ASC_NODE,ARG_OF_PERICENTER,MEAN_ANOMALY,EPHEMERIS_TYPE,CLASSIFICATION_TYPE,NORAD_CAT_ID,ELEMENT_SET_NO,REV_AT_EPOCH,BSTAR,MEAN_MOTION_DOT,MEAN_MOTION_DDOT
STARLINK-5117,2022-141R,2026-06-08T03:28:29.403264,15.08862474,.00013072,53.1663,317.9801,87.4259,272.6882,0,U,54172,999,19951,.16619097E-3,.236E-4,0
STARLINK-5242,2022-141S,2026-06-08T04:10:50.163744,15.08834712,.00013144,53.1689,317.4559,91.5985,268.5157,0,U,54173,999,19952,.13970276E-4,-.66E-6,0
STARLINK-5248,2022-141T,2026-06-08T12:17:43.594368,15.08830570,.0001124,53.1662,261.0992,90.4550,269.6570,0,U,54174,999,20034,.76971E-4,.937E-5,0
STARLINK-5256,2022-141U,2026-06-08T03:33:49.017600,15.08834688,.00011842,53.1676,318.0015,81.6102,278.5024,0,U,54175,999,19951,.58529759E-4,.644E-5,0
STARLINK-5154,2022-141V,2026-06-08T03:12:36.007776,15.08828896,.00014132,53.1692,317.9140,96.4980,263.6172,0,U,54176,999,19951,.40150174E-4,.351E-5,0
STARLINK-5186,2022-141W,2026-06-08T03:23:12.535584,15.08827963,.00012707,53.1702,317.9580,94.9070,265.2067,0,U,54177,999,19951,.39430272E-4,.339E-5,0
STARLINK-5164,2022-141X,2026-06-07T17:19:02.164512,15.08857538,.00013116,53.1716,319.5882,98.4731,261.6409,0,U,54178,999,19945,.25212054E-3,.3729E-4,0
STARLINK-5122,2022-141Y,2026-06-08T03:17:54.143808,15.08832887,.00013987,53.1688,317.9361,99.7834,260.3316,0,U,54179,999,19951,.17806867E-4,-.5E-7,0
STARLINK-5227,2022-141AA,2026-06-07T17:29:40.006464,15.08832820,.00013033,53.1682,319.6525,88.2494,271.8647,0,U,54181,999,19945,.18997081E-4,.14E-6,0
STARLINK-5231,2022-141AB,2026-06-08T12:01:10.543872,15.08765336,.0000933,53.1703,286.0442,110.7454,249.3637,0,U,54182,999,19999,.10099E-2,.15788E-3,0
STARLINK-5239,2022-141AC,2026-06-08T04:16:09.264000,15.08826143,.00009676,53.1689,317.4810,73.3488,286.7609,0,U,54183,999,19952,-.52013072E-4,-.1115E-4,0
STARLINK-5162,2022-141AD,2026-06-07T17:15:14.887584,15.08836729,.00009921,53.1693,320.2822,95.5649,264.5456,0,U,54184,999,19944,.31205238E-4,.209E-5,0
STARLINK-5235,2022-141AE,2026-06-07T17:24:21.562848,15.08834895,.00013203,53.1697,319.6293,88.4141,271.7001,0,U,54185,999,19945,.7800179E-5,-.164E-5,0
STARLINK-5240,2022-141AG,2026-06-08T03:07:17.236704,15.08844083,.00013384,53.1673,317.8974,74.3081,285.8058,0,U,54187,999,19951,.14924565E-3,.2088E-4,0
STARLINK-5238,2022-141AH,2026-06-08T03:51:05.201568,15.08828089,.00012556,53.1687,308.0982,85.3178,274.7957,0,U,54188,999,19965,-.8020293E-4,-.1564E-4,0
STARLINK-5281,2022-141AK,2026-06-07T16:38:03.583392,15.08833071,.00011399,53.1704,310.1570,91.2073,268.9049,0,U,54190,999,19958,.80108861E-4,.987E-5,0
STARLINK-4619,2022-141AL,2026-06-07T16:53:57.963840,15.08862344,.00017572,53.1680,310.2256,82.9963,277.1229,0,U,54191,999,19958,-.36478887E-3,-.6093E-4,0
STARLINK-5268,2022-141AM,2026-06-08T02:52:42.358944,15.08834440,.00020603,53.1693,307.8455,41.2971,318.8176,0,U,54192,999,19965,-.1881583E-5,-.318E-5,0
STARLINK-5263,2022-141AN,2026-06-08T03:35:10.253472,15.08829905,.0001718,53.1681,308.0289,110.1794,249.9383,0,U,54193,999,19965,.2387297E-5,-.25E-5,0
STARLINK-5271,2022-141AP,2026-06-08T03:24:32.017536,15.08843872,.00011906,53.1686,307.9841,88.7202,271.3926,0,U,54194,999,19965,.40478039E-4,.356E-5,0
STARLINK-5258,2022-141AQ,2026-06-08T03:40:26.896512,15.08838680,.00012551,53.1694,308.0499,92.9840,267.1295,0,U,54195,999,19965,.472702E-4,.464E-5,0
STARLINK-5237,2022-141AR,2026-06-08T03:13:55.576992,15.08832570,.00017211,53.1710,307.9347,41.3139,318.7982,0,U,54196,999,19965,.92173285E-4,.1179E-4,0
STARLINK-5246,2022-141AT,2026-06-08T03:08:37.272480,15.08830986,.00008768,53.1671,307.9158,83.2037,276.9054,0,U,54198,999,19965,.43262402E-4,.401E-5,0
STARLINK-5244,2022-141AU,2026-06-08T03:19:13.861632,15.08836995,.00010342,53.1699,307.9602,83.3045,276.8065,0,U,54199,999,19965,.31346982E-4,.211E-5,0
STARLINK-5250,2022-141AV,2026-06-07T17:25:41.675520,15.08821529,.00012772,53.1683,309.6538,88.3655,271.7483,0,U,54200,999,19959,.27965533E-4,.157E-5,0
STARLINK-5199,2022-141AW,2026-06-08T03:29:53.989728,15.08800768,.00011816,53.1697,307.9992,99.3355,260.7770,0,U,54201,999,19965,-.2555036E-3,-.4348E-4,0
STARLINK-5205,2022-141AX,2026-06-08T02:47:23.874720,15.08833103,.00011821,53.1684,307.8223,87.3573,272.7553,0,U,54202,999,19965,-.13327129E-4,-.5E-5,0
STARLINK-5247,2022-141AY,2026-06-08T03:03:18.384768,15.08866109,.00019296,53.1682,307.8883,144.4239,215.6881,0,U,54203,999,19965,-.6715126E-5,-.395E-5,0
STARLINK-5241,2022-141AZ,2026-06-07T16:59:09.815136,15.08828976,.0001291,53.1689,309.5402,90.7840,269.3300,0,U,54204,999,19959,.4116535E-5,-.222E-5,0
STARLINK-5249,2022-141BA,2026-06-08T02:42:05.715360,15.08829898,.00010874,53.1668,307.8001,96.2284,263.8831,0,U,54205,999,19965,-.51443399E-4,-.1106E-4,0
STARLINK-5264,2022-141BB,2026-06-08T12:32:18.931776,15.08835240,.0001185,53.1679,271.1495,88.1613,271.9515,0,U,54206,999,20020,.38148E-4,.319E-5,0
STARLINK-5262,2022-141BC,2026-06-07T17:04:28.217280,15.08831960,.00015879,53.1704,309.5640,85.7446,274.3727,0,U,54207,999,19959,-.87149E-7,-.289E-5,0
STARLINK-5255,2022-141BD,2026-06-08T11:27:26.023392,15.08832694,.0001236,53.1689,281.5607,105.0290,255.0838,0,U,54208,999,20005,.1345E-3,.1853E-4,0
STARLINK-5259,2022-141BE,2026-06-08T02:43:24.322944,15.08840405,.000092,53.1677,297.8076,92.1391,267.9706,0,U,54209,999,19979,.14612197E-3,.2039E-4,0
SHIYAN-20C (SY-20C),2022-142A,2026-06-08T12:00:04.937760,14.29518289,.0009555,59.9966,329.0613,319.7179,40.3147,0,U,54214,999,18845,.64116E-4,.28E-6,0
CSS (MENGTIAN),2022-143A,2026-06-08T01:57:54.676512,15.60427341,.00087027,41.4696,17.3987,5.5904,354.5031,0,U,54216,999,29215,.30374166E-3,.25465E-3,0
LDPE-2,2022-144A,2026-06-08T10:53:04.484832,1.00529011,.0001754,5.5911,63.7214,97.4273,93.3401,0,U,54219,999,1175,0,.143E-5,0
COSMOS 2563,2022-145A,2026-06-07T05:18:53.655840,2.00539255,.70489985,63.2672,281.7771,269.6868,16.7274,0,U,54223,999,2636,0,-.12E-4,0
EUTELSAT HOTBIRD 13G,2022-146A,2026-06-07T22:02:40.046784,1.00271952,.00020021,0.0465,233.4264,306.8370,59.7210,0,U,54225,999,737,0,.102E-5,0
MATS,2022-147A,2026-06-08T11:22:35.275296,15.05305329,.0011253,97.6831,161.1090,223.2496,136.7848,0,U,54227,999,19645,.24484E-3,.3444E-4,0
ZHONGXING-19,2022-148A,2026-06-08T12:25:38.803872,1.00271688,.0002387,0.0219,279.2600,184.0192,143.2321,0,U,54230,999,1329,0,-.65E-6,0
NOAA 21 (JPSS-2),2022-150A,2026-06-08T10:26:42.468864,14.19563971,.0001142,98.7058,98.3714,175.3449,184.7738,0,U,54234,999,18530,.52549E-4,.67E-6,0
YUNHAI-3 01,2022-151A,2026-06-08T12:04:25.521888,14.13367564,.0002148,98.8173,167.0359,112.8377,247.3023,0,U,54235,999,18371,.21908E-4,-.3E-7,0
GALAXY 31 (G-31),2022-153A,2026-06-08T12:43:29.268768,1.00272124,.0001332,0.0165,266.5163,169.8194,250.4610,0,U,54243,999,704,0,.29E-6,0
GALAXY 32 (G-32),2022-153B,2026-06-08T10:25:46.108416,1.00271209,.0002225,0.0089,325.9982,71.5590,284.7157,0,U,54244,999,1305,0,-.158E-5,0
YAOGAN-34 03,2022-154A,2026-06-08T13:05:07.147104,13.45439585,.0075673,63.4064,284.3848,355.4455,4.5874,0,U,54249,999,17509,.34812E-4,-.69E-6,0
JILIN-1 GAOFEN 03D08,2022-155A,2026-06-08T12:37:29.104320,15.63530793,.000301,97.6191,304.2353,27.4544,332.6872,0,U,54251,999,19846,.51634E-3,.4787E-3,0
JILIN-1 GAOFEN 03D51,2022-155B,2026-06-08T12:16:23.045376,15.61310627,.0003596,97.6214,303.6667,31.5930,328.5542,0,U,54252,999,19839,.52331E-3,.44502E-3,0
JILIN-1 GAOFEN 03D53,2022-155C,2026-06-08T12:25:12.872640,15.52226501,.0005641,97.6198,299.4523,47.0247,313.1477,0,U,54253,999,19814,.45928E-3,.27826E-3,0
JILIN-1 GAOFEN 03D54,2022-155D,2026-06-08T11:55:02.983584,15.93233971,.0003823,97.6117,311.4800,268.2171,91.8665,0,U,54254,999,19891,.69561E-3,.243549E-2,.24681E-4
JILIN-1 GAOFEN 03D52,2022-155E,2026-06-08T12:03:58.915872,15.58925002,.0003863,97.6188,302.0347,52.3075,307.8530,0,U,54255,999,19835,.50614E-3,.39279E-3,0
EUTELSAT 10B,2022-157A,2026-06-08T08:17:45.354912,1.00267980,.000203,0.0611,101.8409,10.7698,278.5814,0,U,54259,999,1293,0,.84E-6,0
EOS-6 (OCEANSAT-3),2022-158A,2026-06-08T12:27:29.782944,14.46995457,.000164,98.3534,257.8284,57.9678,302.1673,0,U,54361,999,18658,.92862E-4,.294E-5,0
YAOGAN-36 03A,2022-160A,2026-06-08T01:55:00.906240,15.34347915,.00028769,35.0005,21.2941,245.8979,114.1439,0,U,54372,999,19681,.63782266E-3,.21808E-3,0
YAOGAN-36 03B,2022-160C,2026-06-08T10:29:44.905920,15.20869705,.0007363,34.9929,60.7005,74.0949,286.0576,0,U,54374,999,19639,.30154E-3,.6795E-4,0
YAOGAN-36 03C,2022-160E,2026-06-08T08:43:10.961184,15.23082234,.0006769,35.0099,35.0246,311.2607,48.7525,0,U,54376,999,19670,.36039E-3,.8681E-4,0
COSMOS 2564 [GLONASS-M],2022-161A,2026-06-08T07:48:16.220736,2.13102033,.0012081,64.7409,193.0060,224.3467,135.6256,0,U,54377,999,2744,0,.96E-6,0
COSMOS 2565,2022-163A,2026-06-08T13:24:33.891840,13.96677545,.0006644,67.1464,128.2264,274.5134,85.5191,0,U,54381,999,17956,.37172E-4,-.24E-6,0
COSMOS 2566,2022-163C,2026-06-08T11:59:19.378176,13.97710432,.0001789,67.1417,123.2555,74.1156,286.0126,0,U,54383,999,17935,.61576E-4,.12E-6,0
JIAOTONG VDES,2022-164A,2026-06-08T12:15:15.014016,14.46064922,.0009792,98.2424,178.9278,2.4371,357.6868,0,U,54588,999,18482,.9068E-4,.281E-5,0
GAOFEN-5 01A,2022-165A,2026-06-08T12:44:35.960928,14.57691323,.0002853,98.2351,96.9476,57.0603,303.0870,0,U,54640,999,18615,.11304E-3,.47E-5,0
ONEWEB-0527,2022-166A,2026-06-08T12:00:02.000160,13.20232794,.0002021,87.9257,245.7368,99.6364,41.7449,0,U,54642,999,523,-.17156E-2,-.679E-5,0
ONEWEB-0528,2022-166B,2026-06-08T05:52:42.492000,13.21669035,.0001794,87.9255,245.7784,101.8238,258.3097,0,U,54643,999,17036,.13759E-3,.7E-6,0
ONEWEB-0539,2022-166C,2026-06-08T12:14:45.464352,13.21826314,.0002074,87.9264,245.6971,93.4513,266.6858,0,U,54644,999,17039,.32149E-3,.146E-5,0
ONEWEB-0540,2022-166D,2026-06-08T12:24:38.423232,13.21826318,.0002083,87.9258,245.7266,96.4212,263.7159,0,U,54645,999,17038,-.68687E-5,.1E-6,0
